{"type":"FeatureCollection","features":[{"type":"Feature","properties":{"ibge":"4205100","nome":"Dona Emma","monitorado":true},"geometry":{"type":"Polygon","coordinates":[[[-49.6813,-26.9531],[-49.6807,-26.9645],[-49.6851,-26.9685],[-49.6816,-26.9782],[-49.6859,-26.9855],[-49.677,-26.9874],[-49.6749,-26.9977],[-49.6814,-27.0025],[-49.6917,-26.9925],[-49.707,-27.0207],[-49.703,-27.0249],[-49.6858,-27.0168],[-49.665,-27.0179],[-49.661,-27.0246],[-49.6659,-27.0271],[-49.6652,-27.0336],[-49.6705,-27.0329],[-49.6746,-27.0346],[-49.6821,-27.0299],[-49.6888,-27.0315],[-49.695,-27.0414],[-49.7111,-27.0411],[-49.7203,-27.0366],[-49.7223,-27.0306],[-49.7277,-27.0386],[-49.7358,-27.0288],[-49.74,-27.0344],[-49.7371,-27.0341],[-49.731,-27.0507],[-49.7221,-27.0567],[-49.727,-27.0594],[-49.7516,-27.0488],[-49.7515,-27.0452],[-49.7552,-27.0462],[-49.7619,-27.038],[-49.7627,-27.0305],[-49.7694,-27.0317],[-49.7729,-27.0198],[-49.7766,-27.025],[-49.8034,-27.0155],[-49.8079,-27.0174],[-49.8201,-27.0138],[-49.8257,-27.0133],[-49.8472,-27.0116],[-49.8455,-27.0232],[-49.8684,-27.0246],[-49.8756,-27.0215],[-49.8713,-27.0013],[-49.8957,-26.9965],[-49.8984,-26.9932],[-49.9151,-26.994],[-49.9101,-26.9861],[-49.9119,-26.9688],[-49.9101,-26.962],[-49.9083,-26.9645],[-49.9034,-26.9614],[-49.8998,-26.9692],[-49.8977,-26.9606],[-49.8919,-26.9605],[-49.8868,-26.9723],[-49.8896,-26.9768],[-49.8804,-26.984],[-49.8852,-26.9599],[-49.8823,-26.9531],[-49.8796,-26.9556],[-49.8724,-26.9493],[-49.8705,-26.9511],[-49.8671,-26.9672],[-49.8612,-26.973],[-49.8602,-26.9482],[-49.855,-26.951],[-49.8465,-26.9472],[-49.844,-26.9532],[-49.8471,-26.9593],[-49.8388,-26.9601],[-49.838,-26.9462],[-49.8317,-26.9478],[-49.8278,-26.9434],[-49.8241,-26.9462],[-49.8137,-26.9429],[-49.8172,-26.951],[-49.8221,-26.9534],[-49.8016,-26.959],[-49.8026,-26.9523],[-49.7905,-26.9397],[-49.7872,-26.9424],[-49.7941,-26.9549],[-49.791,-26.9536],[-49.7886,-26.9572],[-49.7831,-26.9599],[-49.7707,-26.9524],[-49.7699,-26.9576],[-49.7748,-26.9624],[-49.7635,-26.9659],[-49.7568,-26.9581],[-49.7533,-26.96],[-49.7458,-26.9562],[-49.7414,-26.9591],[-49.7289,-26.9586],[-49.7216,-26.9469],[-49.714,-26.9382],[-49.7088,-26.9179],[-49.6824,-26.9121],[-49.6883,-26.9218],[-49.6905,-26.9254],[-49.6958,-26.9285],[-49.6893,-26.9352],[-49.6886,-26.9463],[-49.6813,-26.9531]]]}},{"type":"Feature","properties":{"ibge":"4206900","nome":"Ibirama","monitorado":true},"geometry":{"type":"Polygon","coordinates":[[[-49.4672,-27.0412],[-49.4676,-27.044],[-49.4726,-27.0442],[-49.4652,-27.0576],[-49.4708,-27.0664],[-49.4561,-27.0831],[-49.4591,-27.0881],[-49.4581,-27.0993],[-49.4611,-27.0989],[-49.4817,-27.0834],[-49.4952,-27.0787],[-49.5103,-27.083],[-49.5172,-27.0793],[-49.5175,-27.0846],[-49.4992,-27.1051],[-49.5018,-27.1091],[-49.5076,-27.1058],[-49.5131,-27.1077],[-49.5173,-27.1125],[-49.5165,-27.1232],[-49.5164,-27.1345],[-49.5262,-27.1328],[-49.5322,-27.1198],[-49.5405,-27.1159],[-49.545,-27.1147],[-49.5771,-27.1275],[-49.5927,-27.1273],[-49.5883,-27.117],[-49.5906,-27.1141],[-49.5947,-27.1108],[-49.5957,-27.1008],[-49.5852,-27.0864],[-49.5769,-27.078],[-49.5857,-27.0588],[-49.5909,-27.0476],[-49.592,-27.0452],[-49.5896,-27.0452],[-49.594,-27.0364],[-49.5941,-27.0283],[-49.5928,-27.0226],[-49.5975,-27.0165],[-49.6007,-27.0099],[-49.5809,-27.0005],[-49.5765,-26.9907],[-49.5763,-26.9765],[-49.5777,-26.9597],[-49.5695,-26.9381],[-49.5437,-26.9131],[-49.5459,-26.8996],[-49.5433,-26.8911],[-49.51,-26.9088],[-49.5069,-26.9203],[-49.488,-26.9347],[-49.4839,-26.9369],[-49.4651,-26.9396],[-49.4603,-26.9601],[-49.4622,-26.972],[-49.4603,-26.9833],[-49.4674,-27.0041],[-49.4673,-27.0236],[-49.4665,-27.0361],[-49.468,-27.0373],[-49.4699,-27.0394],[-49.4672,-27.0412]]]}},{"type":"Feature","properties":{"ibge":"4209151","nome":"José Boiteux","monitorado":true},"geometry":{"type":"Polygon","coordinates":[[[-49.6445,-26.7689],[-49.6442,-26.7792],[-49.6213,-26.7782],[-49.6196,-26.7843],[-49.6072,-26.7842],[-49.5778,-26.7763],[-49.5706,-26.7814],[-49.5634,-26.7851],[-49.5654,-26.8021],[-49.5601,-26.8135],[-49.5625,-26.8243],[-49.5539,-26.8409],[-49.5521,-26.8529],[-49.5499,-26.8558],[-49.5531,-26.8685],[-49.5504,-26.8748],[-49.5469,-26.8904],[-49.5433,-26.8911],[-49.5459,-26.8996],[-49.5437,-26.9131],[-49.5695,-26.9381],[-49.5777,-26.9597],[-49.5763,-26.9765],[-49.5765,-26.9907],[-49.5809,-27.0005],[-49.6007,-27.0099],[-49.6052,-27.0028],[-49.632,-26.9956],[-49.6392,-26.9779],[-49.6539,-26.9654],[-49.6553,-26.9587],[-49.6767,-26.9459],[-49.6905,-26.9254],[-49.6883,-26.9218],[-49.6824,-26.9121],[-49.7088,-26.9179],[-49.7232,-26.9171],[-49.7251,-26.9115],[-49.7384,-26.9118],[-49.76,-26.9029],[-49.7701,-26.8932],[-49.7691,-26.8891],[-49.7458,-26.8809],[-49.7194,-26.8585],[-49.7052,-26.8682],[-49.7054,-26.8579],[-49.708,-26.851],[-49.7053,-26.847],[-49.7139,-26.8348],[-49.7339,-26.8175],[-49.7435,-26.7987],[-49.7535,-26.7936],[-49.75,-26.7852],[-49.742,-26.7829],[-49.7301,-26.7663],[-49.7272,-26.7628],[-49.7252,-26.7542],[-49.7284,-26.7452],[-49.7195,-26.7217],[-49.7101,-26.7188],[-49.7022,-26.704],[-49.6936,-26.6988],[-49.6815,-26.7019],[-49.6697,-26.7364],[-49.6649,-26.7405],[-49.658,-26.7406],[-49.6593,-26.748],[-49.6562,-26.7519],[-49.6525,-26.7621],[-49.6445,-26.7689]]]}},{"type":"Feature","properties":{"ibge":"4214003","nome":"Presidente Getúlio","monitorado":true},"geometry":{"type":"Polygon","coordinates":[[[-49.632,-26.9956],[-49.6052,-27.0028],[-49.6007,-27.0099],[-49.5975,-27.0165],[-49.5928,-27.0226],[-49.5941,-27.0283],[-49.594,-27.0364],[-49.5896,-27.0452],[-49.592,-27.0452],[-49.5909,-27.0476],[-49.5857,-27.0588],[-49.5769,-27.078],[-49.5852,-27.0864],[-49.5989,-27.0857],[-49.6006,-27.0822],[-49.6133,-27.0801],[-49.6255,-27.0876],[-49.6328,-27.0993],[-49.6351,-27.1077],[-49.656,-27.1029],[-49.6635,-27.1086],[-49.6669,-27.1167],[-49.6961,-27.123],[-49.6988,-27.1297],[-49.708,-27.132],[-49.7171,-27.1426],[-49.7194,-27.1442],[-49.7243,-27.1439],[-49.7341,-27.1476],[-49.7414,-27.1452],[-49.7455,-27.1347],[-49.764,-27.1315],[-49.7729,-27.1382],[-49.7818,-27.1363],[-49.7839,-27.1337],[-49.7847,-27.1299],[-49.8019,-27.1271],[-49.8061,-27.1164],[-49.8235,-27.113],[-49.8331,-27.1131],[-49.8359,-27.0815],[-49.8441,-27.0689],[-49.8456,-27.0606],[-49.8399,-27.0472],[-49.8401,-27.0323],[-49.8455,-27.0232],[-49.8472,-27.0116],[-49.8257,-27.0133],[-49.8201,-27.0138],[-49.8079,-27.0174],[-49.8034,-27.0155],[-49.7766,-27.025],[-49.7729,-27.0198],[-49.7694,-27.0317],[-49.7627,-27.0305],[-49.7619,-27.038],[-49.7552,-27.0462],[-49.7515,-27.0452],[-49.7516,-27.0488],[-49.727,-27.0594],[-49.7221,-27.0567],[-49.731,-27.0507],[-49.7371,-27.0341],[-49.74,-27.0344],[-49.7358,-27.0288],[-49.7277,-27.0386],[-49.7223,-27.0306],[-49.7203,-27.0366],[-49.7111,-27.0411],[-49.695,-27.0414],[-49.6888,-27.0315],[-49.6821,-27.0299],[-49.6746,-27.0346],[-49.6705,-27.0329],[-49.6652,-27.0336],[-49.6659,-27.0271],[-49.661,-27.0246],[-49.665,-27.0179],[-49.6858,-27.0168],[-49.703,-27.0249],[-49.707,-27.0207],[-49.6917,-26.9925],[-49.6814,-27.0025],[-49.6749,-26.9977],[-49.677,-26.9874],[-49.6859,-26.9855],[-49.6816,-26.9782],[-49.6851,-26.9685],[-49.6807,-26.9645],[-49.6813,-26.9531],[-49.6886,-26.9463],[-49.6893,-26.9352],[-49.6958,-26.9285],[-49.6905,-26.9254],[-49.6767,-26.9459],[-49.6553,-26.9587],[-49.6539,-26.9654],[-49.6392,-26.9779],[-49.632,-26.9956]]]}},{"type":"Feature","properties":{"ibge":"4219358","nome":"Vitor Meireles","monitorado":true},"geometry":{"type":"Polygon","coordinates":[[[-49.7938,-26.7393],[-49.7924,-26.7486],[-49.7814,-26.7506],[-49.7752,-26.7598],[-49.7723,-26.7713],[-49.772,-26.773],[-49.7539,-26.7764],[-49.75,-26.7852],[-49.7535,-26.7936],[-49.7435,-26.7987],[-49.7339,-26.8175],[-49.7139,-26.8348],[-49.7053,-26.847],[-49.708,-26.851],[-49.7054,-26.8579],[-49.7052,-26.8682],[-49.7194,-26.8585],[-49.7458,-26.8809],[-49.7691,-26.8891],[-49.7801,-26.8927],[-49.782,-26.8851],[-49.7888,-26.8914],[-49.8049,-26.8909],[-49.8045,-26.8971],[-49.811,-26.8931],[-49.8136,-26.8954],[-49.8135,-26.8924],[-49.8174,-26.8974],[-49.8212,-26.8935],[-49.8272,-26.8988],[-49.8325,-26.8966],[-49.8351,-26.9022],[-49.84,-26.9002],[-49.8435,-26.9081],[-49.8474,-26.9029],[-49.8485,-26.9073],[-49.8613,-26.9097],[-49.863,-26.9059],[-49.8678,-26.9061],[-49.8702,-26.9163],[-49.8778,-26.9158],[-49.8798,-26.9088],[-49.887,-26.9058],[-49.893,-26.9126],[-49.9234,-26.9123],[-49.9333,-26.925],[-49.9485,-26.9277],[-49.9578,-26.9189],[-49.9502,-26.9055],[-49.9541,-26.9008],[-49.958,-26.906],[-49.9615,-26.9006],[-49.9579,-26.8958],[-49.9634,-26.8779],[-49.9684,-26.8678],[-49.9582,-26.8588],[-49.9564,-26.8462],[-49.9529,-26.844],[-49.9518,-26.8222],[-49.9469,-26.8148],[-49.9488,-26.8076],[-49.9464,-26.806],[-49.9362,-26.7957],[-49.9294,-26.7969],[-49.9286,-26.7889],[-49.9216,-26.7876],[-49.9165,-26.7905],[-49.9134,-26.7831],[-49.9065,-26.7865],[-49.9057,-26.7791],[-49.9008,-26.7755],[-49.9032,-26.7735],[-49.8903,-26.7537],[-49.89,-26.7412],[-49.8864,-26.7428],[-49.8798,-26.7323],[-49.8747,-26.7315],[-49.8471,-26.7107],[-49.8353,-26.7042],[-49.8286,-26.7055],[-49.8255,-26.7077],[-49.8127,-26.7108],[-49.8072,-26.7158],[-49.8039,-26.7269],[-49.7938,-26.7393]]]}},{"type":"Feature","properties":{"ibge":"4219408","nome":"Witmarsum","monitorado":true},"geometry":{"type":"Polygon","coordinates":[[[-49.782,-26.8851],[-49.7801,-26.8927],[-49.7691,-26.8891],[-49.7701,-26.8932],[-49.76,-26.9029],[-49.7384,-26.9118],[-49.7251,-26.9115],[-49.7232,-26.9171],[-49.7088,-26.9179],[-49.714,-26.9382],[-49.7216,-26.9469],[-49.7289,-26.9586],[-49.7414,-26.9591],[-49.7458,-26.9562],[-49.7533,-26.96],[-49.7568,-26.9581],[-49.7635,-26.9659],[-49.7748,-26.9624],[-49.7699,-26.9576],[-49.7707,-26.9524],[-49.7831,-26.9599],[-49.7886,-26.9572],[-49.791,-26.9536],[-49.7941,-26.9549],[-49.7872,-26.9424],[-49.7905,-26.9397],[-49.8026,-26.9523],[-49.8016,-26.959],[-49.8221,-26.9534],[-49.8172,-26.951],[-49.8137,-26.9429],[-49.8241,-26.9462],[-49.8278,-26.9434],[-49.8317,-26.9478],[-49.838,-26.9462],[-49.8388,-26.9601],[-49.8471,-26.9593],[-49.844,-26.9532],[-49.8465,-26.9472],[-49.855,-26.951],[-49.8602,-26.9482],[-49.8612,-26.973],[-49.8671,-26.9672],[-49.8705,-26.9511],[-49.8724,-26.9493],[-49.8796,-26.9556],[-49.8823,-26.9531],[-49.8852,-26.9599],[-49.8804,-26.984],[-49.8896,-26.9768],[-49.8868,-26.9723],[-49.8919,-26.9605],[-49.8977,-26.9606],[-49.8998,-26.9692],[-49.9034,-26.9614],[-49.9083,-26.9645],[-49.9101,-26.962],[-49.9119,-26.9688],[-49.9101,-26.9861],[-49.9151,-26.994],[-49.8984,-26.9932],[-49.8957,-26.9965],[-49.8966,-26.999],[-49.9149,-27],[-49.946,-26.9963],[-49.9463,-26.9877],[-49.9587,-26.9602],[-49.9545,-26.946],[-49.9571,-26.9418],[-49.955,-26.9314],[-49.9485,-26.9277],[-49.9333,-26.925],[-49.9234,-26.9123],[-49.893,-26.9126],[-49.887,-26.9058],[-49.8798,-26.9088],[-49.8778,-26.9158],[-49.8702,-26.9163],[-49.8678,-26.9061],[-49.863,-26.9059],[-49.8613,-26.9097],[-49.8485,-26.9073],[-49.8474,-26.9029],[-49.8435,-26.9081],[-49.84,-26.9002],[-49.8351,-26.9022],[-49.8325,-26.8966],[-49.8272,-26.8988],[-49.8212,-26.8935],[-49.8174,-26.8974],[-49.8135,-26.8924],[-49.8136,-26.8954],[-49.811,-26.8931],[-49.8045,-26.8971],[-49.8049,-26.8909],[-49.7888,-26.8914],[-49.782,-26.8851]]]}},{"type":"Feature","properties":{"ibge":"4201257","nome":"Apiúna","monitorado":false},"geometry":{"type":"Polygon","coordinates":[[[-49.3352,-27.0131],[-49.3273,-27.0151],[-49.3266,-27.0186],[-49.3171,-27.021],[-49.3122,-27.0338],[-49.3115,-27.034],[-49.2968,-27.0378],[-49.3004,-27.0421],[-49.2969,-27.0446],[-49.2976,-27.0541],[-49.2926,-27.0579],[-49.2834,-27.0575],[-49.2752,-27.0529],[-49.2674,-27.0554],[-49.2641,-27.0652],[-49.2712,-27.0787],[-49.256,-27.0828],[-49.2556,-27.098],[-49.2479,-27.1137],[-49.2474,-27.1284],[-49.2416,-27.1333],[-49.2418,-27.1374],[-49.2383,-27.1373],[-49.2305,-27.1555],[-49.2202,-27.1632],[-49.2256,-27.1659],[-49.2263,-27.1714],[-49.2344,-27.1721],[-49.2431,-27.1793],[-49.2476,-27.1956],[-49.249,-27.1976],[-49.2629,-27.2107],[-49.2697,-27.2075],[-49.2846,-27.21],[-49.2847,-27.2101],[-49.2935,-27.2152],[-49.3027,-27.2111],[-49.3089,-27.215],[-49.3093,-27.216],[-49.3208,-27.2302],[-49.3416,-27.2373],[-49.373,-27.2283],[-49.3977,-27.2357],[-49.4033,-27.2315],[-49.4102,-27.236],[-49.4169,-27.239],[-49.4197,-27.2485],[-49.4267,-27.2532],[-49.4465,-27.255],[-49.451,-27.2493],[-49.4494,-27.2452],[-49.4625,-27.2273],[-49.4578,-27.2113],[-49.4603,-27.2099],[-49.4567,-27.2068],[-49.4548,-27.198],[-49.4365,-27.1846],[-49.4635,-27.1708],[-49.4557,-27.1571],[-49.4608,-27.1471],[-49.4668,-27.1252],[-49.4662,-27.1137],[-49.4705,-27.1059],[-49.4663,-27.1053],[-49.4766,-27.0951],[-49.4931,-27.0873],[-49.4906,-27.0832],[-49.4952,-27.0787],[-49.4817,-27.0834],[-49.4611,-27.0989],[-49.4581,-27.0993],[-49.4591,-27.0881],[-49.4561,-27.0831],[-49.4708,-27.0664],[-49.4652,-27.0576],[-49.4726,-27.0442],[-49.4676,-27.044],[-49.4672,-27.0412],[-49.4699,-27.0394],[-49.468,-27.0373],[-49.4665,-27.0361],[-49.4673,-27.0236],[-49.4674,-27.0041],[-49.4591,-27.0068],[-49.457,-27.0079],[-49.4525,-27.0099],[-49.4486,-27.0115],[-49.4409,-27.0136],[-49.4362,-27.0103],[-49.41,-27.0082],[-49.3881,-27.0105],[-49.3799,-27.015],[-49.3762,-27.0126],[-49.3775,-27],[-49.3842,-26.988],[-49.3754,-26.9817],[-49.3717,-26.9877],[-49.3671,-26.9895],[-49.3586,-26.9919],[-49.3503,-27.0015],[-49.3401,-27.0046],[-49.3352,-27.0131]]]}},{"type":"Feature","properties":{"ibge":"4201703","nome":"Ascurra","monitorado":false},"geometry":{"type":"Polygon","coordinates":[[[-49.4344,-26.9147],[-49.4071,-26.9329],[-49.3902,-26.9299],[-49.3814,-26.9362],[-49.3795,-26.943],[-49.367,-26.9431],[-49.3515,-26.958],[-49.3383,-26.9659],[-49.318,-26.963],[-49.3155,-26.9587],[-49.3121,-26.9602],[-49.3124,-26.9692],[-49.3134,-26.9765],[-49.3054,-26.9821],[-49.2996,-26.9935],[-49.3094,-27.0031],[-49.3108,-27.0139],[-49.3171,-27.021],[-49.3266,-27.0186],[-49.3273,-27.0151],[-49.3352,-27.0131],[-49.3401,-27.0046],[-49.3503,-27.0015],[-49.3586,-26.9919],[-49.3671,-26.9895],[-49.3717,-26.9877],[-49.3754,-26.9817],[-49.3842,-26.988],[-49.3775,-27],[-49.3762,-27.0126],[-49.3799,-27.015],[-49.3881,-27.0105],[-49.41,-27.0082],[-49.4362,-27.0103],[-49.4409,-27.0136],[-49.4486,-27.0115],[-49.4525,-27.0099],[-49.457,-27.0079],[-49.4591,-27.0068],[-49.4674,-27.0041],[-49.4603,-26.9833],[-49.4622,-26.972],[-49.4603,-26.9601],[-49.4651,-26.9396],[-49.4602,-26.933],[-49.4578,-26.9354],[-49.4517,-26.934],[-49.4457,-26.9212],[-49.4344,-26.9147]]]}},{"type":"Feature","properties":{"ibge":"4202206","nome":"Benedito Novo","monitorado":false},"geometry":{"type":"Polygon","coordinates":[[[-49.4748,-26.6473],[-49.4654,-26.6507],[-49.4492,-26.6471],[-49.4421,-26.6564],[-49.4177,-26.6604],[-49.4114,-26.6675],[-49.4061,-26.6656],[-49.4036,-26.6687],[-49.3943,-26.6764],[-49.3948,-26.6805],[-49.386,-26.6834],[-49.3782,-26.694],[-49.3685,-26.6941],[-49.3644,-26.7048],[-49.3555,-26.7089],[-49.3533,-26.7223],[-49.3414,-26.7234],[-49.3411,-26.7273],[-49.3332,-26.7346],[-49.329,-26.7372],[-49.3339,-26.74],[-49.3346,-26.7454],[-49.3344,-26.7523],[-49.3394,-26.7562],[-49.3332,-26.7644],[-49.3276,-26.772],[-49.3331,-26.777],[-49.3278,-26.785],[-49.3336,-26.7968],[-49.3298,-26.8072],[-49.3426,-26.818],[-49.3447,-26.8193],[-49.348,-26.8201],[-49.3588,-26.8222],[-49.3565,-26.8317],[-49.3712,-26.8418],[-49.3715,-26.8519],[-49.3769,-26.8529],[-49.3828,-26.8642],[-49.401,-26.8671],[-49.4029,-26.8737],[-49.4118,-26.9002],[-49.4239,-26.9049],[-49.4266,-26.9155],[-49.4344,-26.9147],[-49.4457,-26.9212],[-49.4517,-26.934],[-49.4578,-26.9354],[-49.4602,-26.933],[-49.4651,-26.9396],[-49.4839,-26.9369],[-49.488,-26.9347],[-49.5069,-26.9203],[-49.51,-26.9088],[-49.5433,-26.8911],[-49.5469,-26.8904],[-49.5504,-26.8748],[-49.5531,-26.8685],[-49.5499,-26.8558],[-49.5385,-26.8541],[-49.5341,-26.849],[-49.5302,-26.8445],[-49.5334,-26.8412],[-49.533,-26.8286],[-49.5209,-26.8232],[-49.5241,-26.8155],[-49.516,-26.8085],[-49.5194,-26.7977],[-49.5063,-26.7886],[-49.4935,-26.7907],[-49.4864,-26.7789],[-49.4706,-26.7729],[-49.4688,-26.7669],[-49.4533,-26.7655],[-49.4486,-26.7608],[-49.4462,-26.7583],[-49.4512,-26.7567],[-49.4503,-26.751],[-49.4499,-26.7487],[-49.4492,-26.73],[-49.4518,-26.7235],[-49.449,-26.7141],[-49.4564,-26.7081],[-49.4652,-26.7062],[-49.4735,-26.6966],[-49.4714,-26.6772],[-49.4807,-26.6727],[-49.4876,-26.6608],[-49.4835,-26.6486],[-49.4748,-26.6473]]]}},{"type":"Feature","properties":{"ibge":"4205159","nome":"Doutor Pedrinho","monitorado":false},"geometry":{"type":"Polygon","coordinates":[[[-49.5026,-26.6523],[-49.4957,-26.6608],[-49.4891,-26.6596],[-49.4876,-26.6608],[-49.4807,-26.6727],[-49.4714,-26.6772],[-49.4735,-26.6966],[-49.4652,-26.7062],[-49.4564,-26.7081],[-49.449,-26.7141],[-49.4518,-26.7235],[-49.4492,-26.73],[-49.4499,-26.7487],[-49.4503,-26.751],[-49.4512,-26.7567],[-49.4462,-26.7583],[-49.4486,-26.7608],[-49.4533,-26.7655],[-49.4688,-26.7669],[-49.4706,-26.7729],[-49.4864,-26.7789],[-49.4935,-26.7907],[-49.5063,-26.7886],[-49.5194,-26.7977],[-49.516,-26.8085],[-49.5241,-26.8155],[-49.5209,-26.8232],[-49.533,-26.8286],[-49.5334,-26.8412],[-49.5302,-26.8445],[-49.5341,-26.849],[-49.5385,-26.8541],[-49.5499,-26.8558],[-49.5521,-26.8529],[-49.5539,-26.8409],[-49.5625,-26.8243],[-49.5601,-26.8135],[-49.5654,-26.8021],[-49.5634,-26.7851],[-49.5706,-26.7814],[-49.5778,-26.7763],[-49.6072,-26.7842],[-49.6196,-26.7843],[-49.6213,-26.7782],[-49.6442,-26.7792],[-49.6445,-26.7689],[-49.6525,-26.7621],[-49.6562,-26.7519],[-49.6593,-26.748],[-49.658,-26.7406],[-49.6649,-26.7405],[-49.6697,-26.7364],[-49.6815,-26.7019],[-49.6743,-26.6997],[-49.6648,-26.6917],[-49.6532,-26.6918],[-49.6519,-26.6894],[-49.6447,-26.693],[-49.6406,-26.6911],[-49.6234,-26.7027],[-49.6163,-26.7001],[-49.6158,-26.6791],[-49.6231,-26.6634],[-49.6212,-26.6499],[-49.6159,-26.6385],[-49.6042,-26.6349],[-49.5945,-26.6271],[-49.5858,-26.6227],[-49.585,-26.6079],[-49.579,-26.5949],[-49.5822,-26.5818],[-49.565,-26.5652],[-49.5365,-26.5637],[-49.5275,-26.566],[-49.5224,-26.5718],[-49.5086,-26.5771],[-49.5091,-26.5911],[-49.5064,-26.5992],[-49.4947,-26.6051],[-49.4849,-26.6114],[-49.4964,-26.6248],[-49.4991,-26.639],[-49.4956,-26.6434],[-49.5026,-26.6523]]]}},{"type":"Feature","properties":{"ibge":"4208104","nome":"Itaiópolis","monitorado":false},"geometry":{"type":"Polygon","coordinates":[[[-49.8969,-26.2322],[-49.8865,-26.25],[-49.8798,-26.2517],[-49.8631,-26.2485],[-49.8525,-26.2393],[-49.8454,-26.2452],[-49.8245,-26.2763],[-49.8146,-26.2914],[-49.8078,-26.3018],[-49.8088,-26.3061],[-49.8142,-26.3067],[-49.8122,-26.3145],[-49.8072,-26.3135],[-49.8139,-26.3247],[-49.8076,-26.3263],[-49.8068,-26.3301],[-49.8048,-26.3353],[-49.7986,-26.3335],[-49.8036,-26.3388],[-49.8005,-26.343],[-49.8042,-26.3472],[-49.8047,-26.3439],[-49.811,-26.3443],[-49.8129,-26.3559],[-49.8172,-26.3562],[-49.8199,-26.3667],[-49.7898,-26.406],[-49.787,-26.423],[-49.781,-26.4276],[-49.8145,-26.4675],[-49.8144,-26.484],[-49.8073,-26.4876],[-49.8017,-26.4835],[-49.7928,-26.4847],[-49.7898,-26.4805],[-49.7832,-26.4815],[-49.7701,-26.475],[-49.7666,-26.4701],[-49.7642,-26.4733],[-49.7609,-26.4705],[-49.7588,-26.4734],[-49.7624,-26.4776],[-49.758,-26.4829],[-49.7567,-26.4942],[-49.7364,-26.5179],[-49.7333,-26.5482],[-49.7231,-26.5579],[-49.7023,-26.5726],[-49.6933,-26.5726],[-49.6866,-26.5853],[-49.6857,-26.611],[-49.6841,-26.6194],[-49.6758,-26.6224],[-49.6816,-26.629],[-49.6862,-26.6258],[-49.6964,-26.6352],[-49.7,-26.6346],[-49.703,-26.6443],[-49.7086,-26.6486],[-49.7063,-26.662],[-49.6943,-26.6794],[-49.6938,-26.6856],[-49.6872,-26.6913],[-49.677,-26.693],[-49.6629,-26.687],[-49.6532,-26.6918],[-49.6648,-26.6917],[-49.6743,-26.6997],[-49.6815,-26.7019],[-49.6936,-26.6988],[-49.7022,-26.704],[-49.7101,-26.7188],[-49.7195,-26.7217],[-49.7284,-26.7452],[-49.7252,-26.7542],[-49.7272,-26.7628],[-49.7301,-26.7663],[-49.742,-26.7829],[-49.75,-26.7852],[-49.7539,-26.7764],[-49.772,-26.773],[-49.7723,-26.7713],[-49.7752,-26.7598],[-49.7814,-26.7506],[-49.7924,-26.7486],[-49.7938,-26.7393],[-49.8039,-26.7269],[-49.8072,-26.7158],[-49.8127,-26.7108],[-49.8255,-26.7077],[-49.8286,-26.7055],[-49.8389,-26.6905],[-49.8382,-26.6759],[-49.8468,-26.6722],[-49.8467,-26.6662],[-49.8566,-26.6524],[-49.8646,-26.6503],[-49.8716,-26.6525],[-49.8745,-26.6499],[-49.8815,-26.645],[-49.8794,-26.6277],[-49.8842,-26.6169],[-49.8955,-26.6062],[-49.8966,-26.6012],[-49.9106,-26.6009],[-49.9085,-26.5963],[-49.9128,-26.5844],[-49.9316,-26.571],[-49.9439,-26.5732],[-49.9457,-26.5695],[-49.9548,-26.5675],[-49.9538,-26.5611],[-49.9589,-26.5526],[-49.9557,-26.5439],[-49.9618,-26.5433],[-49.9723,-26.5302],[-49.9703,-26.5256],[-49.9817,-26.5211],[-49.9856,-26.5134],[-49.9905,-26.5102],[-49.9957,-26.5048],[-50.0191,-26.5029],[-50.0329,-26.5191],[-50.0581,-26.5213],[-50.0672,-26.5192],[-50.0794,-26.5251],[-50.091,-26.5236],[-50.0936,-26.5159],[-50.0856,-26.5046],[-50.0877,-26.4978],[-50.0832,-26.4727],[-50.0692,-26.4493],[-50.0646,-26.4473],[-50.0644,-26.4416],[-50.0719,-26.4337],[-50.0755,-26.4233],[-50.0737,-26.4052],[-50.0823,-26.3961],[-50.0872,-26.3856],[-50.0842,-26.3629],[-50.0889,-26.3504],[-50.0942,-26.3519],[-50.1002,-26.3465],[-50.106,-26.3538],[-50.1112,-26.3528],[-50.1119,-26.3387],[-50.1167,-26.3374],[-50.1175,-26.3283],[-50.1236,-26.3245],[-50.1228,-26.3158],[-50.116,-26.3078],[-50.127,-26.292],[-50.1214,-26.2835],[-50.1123,-26.2894],[-50.1012,-26.2778],[-50.1043,-26.2771],[-50.0959,-26.2763],[-50.0932,-26.2791],[-50.0928,-26.2744],[-50.0896,-26.2711],[-50.0811,-26.2734],[-50.0738,-26.2807],[-50.0659,-26.2802],[-50.0627,-26.2746],[-50.0426,-26.2698],[-50.0363,-26.2623],[-50.0272,-26.2673],[-50.0175,-26.2652],[-49.9996,-26.2792],[-49.9938,-26.2778],[-49.9842,-26.2766],[-49.9802,-26.2777],[-49.9618,-26.2565],[-49.9406,-26.2542],[-49.9195,-26.2467],[-49.9097,-26.2475],[-49.9009,-26.232],[-49.8971,-26.2321],[-49.8969,-26.2322]]]}},{"type":"Feature","properties":{"ibge":"4209508","nome":"Laurentino","monitorado":false},"geometry":{"type":"Polygon","coordinates":[[[-49.7171,-27.1426],[-49.7105,-27.1509],[-49.7043,-27.1639],[-49.7058,-27.1723],[-49.7019,-27.1747],[-49.7041,-27.1852],[-49.694,-27.1888],[-49.6835,-27.198],[-49.6955,-27.2004],[-49.6891,-27.209],[-49.6978,-27.2172],[-49.6965,-27.2274],[-49.6909,-27.2294],[-49.6884,-27.2361],[-49.6906,-27.2442],[-49.6927,-27.244],[-49.6954,-27.2448],[-49.7088,-27.248],[-49.7358,-27.262],[-49.7538,-27.244],[-49.7777,-27.2511],[-49.7862,-27.2471],[-49.7922,-27.2532],[-49.8017,-27.2487],[-49.7982,-27.2441],[-49.8025,-27.2383],[-49.7878,-27.2406],[-49.7766,-27.2288],[-49.7771,-27.2243],[-49.7647,-27.2215],[-49.7697,-27.2143],[-49.7682,-27.2091],[-49.7647,-27.2082],[-49.7629,-27.2079],[-49.7572,-27.202],[-49.7592,-27.1949],[-49.7504,-27.1741],[-49.7605,-27.1764],[-49.7565,-27.1571],[-49.7538,-27.1521],[-49.7414,-27.1452],[-49.7341,-27.1476],[-49.7243,-27.1439],[-49.7194,-27.1442],[-49.7171,-27.1426]]]}},{"type":"Feature","properties":{"ibge":"4209904","nome":"Lontras","monitorado":false},"geometry":{"type":"Polygon","coordinates":[[[-49.5172,-27.0793],[-49.5103,-27.083],[-49.4952,-27.0787],[-49.4906,-27.0832],[-49.4931,-27.0873],[-49.4766,-27.0951],[-49.4663,-27.1053],[-49.4705,-27.1059],[-49.4662,-27.1137],[-49.4668,-27.1252],[-49.4608,-27.1471],[-49.4557,-27.1571],[-49.4635,-27.1708],[-49.4365,-27.1846],[-49.4548,-27.198],[-49.4567,-27.2068],[-49.4603,-27.2099],[-49.4578,-27.2113],[-49.4625,-27.2273],[-49.4494,-27.2452],[-49.451,-27.2493],[-49.4465,-27.255],[-49.4527,-27.2722],[-49.467,-27.2798],[-49.4744,-27.2888],[-49.4855,-27.2924],[-49.4888,-27.2982],[-49.4966,-27.2977],[-49.5103,-27.2825],[-49.5099,-27.2771],[-49.5275,-27.2716],[-49.536,-27.2563],[-49.5438,-27.2504],[-49.5509,-27.2349],[-49.5508,-27.232],[-49.5427,-27.2282],[-49.5433,-27.2182],[-49.5555,-27.2068],[-49.5716,-27.1789],[-49.572,-27.1781],[-49.5744,-27.1739],[-49.5763,-27.1675],[-49.5754,-27.162],[-49.5723,-27.1435],[-49.5916,-27.1429],[-49.5927,-27.1273],[-49.5771,-27.1275],[-49.545,-27.1147],[-49.5405,-27.1159],[-49.5322,-27.1198],[-49.5262,-27.1328],[-49.5164,-27.1345],[-49.5165,-27.1232],[-49.5173,-27.1125],[-49.5131,-27.1077],[-49.5076,-27.1058],[-49.5018,-27.1091],[-49.4992,-27.1051],[-49.5175,-27.0846],[-49.5172,-27.0793]]]}},{"type":"Feature","properties":{"ibge":"4214508","nome":"Rio do Campo","monitorado":false},"geometry":{"type":"Polygon","coordinates":[[[-50.1704,-26.7905],[-50.155,-26.7968],[-50.1549,-26.7968],[-50.1435,-26.7943],[-50.1371,-26.8],[-50.1246,-26.8007],[-50.1022,-26.8159],[-50.0853,-26.8095],[-50.0685,-26.8062],[-50.0659,-26.8082],[-50.071,-26.8379],[-50.0602,-26.8383],[-50.0629,-26.8325],[-50.0563,-26.8212],[-50.0448,-26.8131],[-50.0359,-26.813],[-50.0333,-26.8137],[-49.9944,-26.8045],[-49.9949,-26.8016],[-49.9908,-26.8028],[-49.986,-26.7971],[-49.9796,-26.7939],[-49.9757,-26.7972],[-49.968,-26.8025],[-49.9521,-26.8007],[-49.9488,-26.8076],[-49.9469,-26.8148],[-49.9518,-26.8222],[-49.9529,-26.844],[-49.9564,-26.8462],[-49.9582,-26.8588],[-49.9684,-26.8678],[-49.9732,-26.8682],[-50.0044,-26.8794],[-50.0211,-26.9002],[-50.0154,-26.9093],[-50.0232,-26.9139],[-50.0246,-26.9214],[-50.0501,-26.9327],[-50.0623,-26.9491],[-50.0651,-26.9526],[-50.0726,-26.9684],[-50.0858,-26.9744],[-50.0919,-26.9875],[-50.0698,-27.0316],[-50.0882,-27.0261],[-50.0946,-27.0202],[-50.0977,-27.0257],[-50.1072,-27.018],[-50.1194,-27.0156],[-50.1083,-27.008],[-50.1154,-27.004],[-50.1055,-26.9967],[-50.1151,-26.9861],[-50.1573,-26.9864],[-50.1675,-26.9839],[-50.1677,-26.9838],[-50.2342,-26.9863],[-50.2905,-26.9682],[-50.2788,-26.9465],[-50.2847,-26.9314],[-50.2731,-26.9297],[-50.2753,-26.9167],[-50.2614,-26.8899],[-50.2632,-26.8798],[-50.278,-26.881],[-50.2825,-26.8749],[-50.2553,-26.8628],[-50.2446,-26.8524],[-50.2443,-26.8358],[-50.2305,-26.8285],[-50.2192,-26.8134],[-50.1969,-26.8134],[-50.1704,-26.7905]]]}},{"type":"Feature","properties":{"ibge":"4214607","nome":"Rio do Oeste","monitorado":false},"geometry":{"type":"Polygon","coordinates":[[[-49.8756,-27.0215],[-49.8684,-27.0246],[-49.8455,-27.0232],[-49.8401,-27.0323],[-49.8399,-27.0472],[-49.8456,-27.0606],[-49.8441,-27.0689],[-49.8359,-27.0815],[-49.8331,-27.1131],[-49.8235,-27.113],[-49.8061,-27.1164],[-49.8019,-27.1271],[-49.7847,-27.1299],[-49.7839,-27.1337],[-49.7818,-27.1363],[-49.7729,-27.1382],[-49.764,-27.1315],[-49.7455,-27.1347],[-49.7414,-27.1452],[-49.7538,-27.1521],[-49.7565,-27.1571],[-49.7605,-27.1764],[-49.7504,-27.1741],[-49.7592,-27.1949],[-49.7572,-27.202],[-49.7629,-27.2079],[-49.7647,-27.2082],[-49.7682,-27.2091],[-49.7697,-27.2143],[-49.7647,-27.2215],[-49.7771,-27.2243],[-49.7766,-27.2288],[-49.7878,-27.2406],[-49.8025,-27.2383],[-49.7982,-27.2441],[-49.8017,-27.2487],[-49.8087,-27.2634],[-49.8215,-27.2656],[-49.8454,-27.2328],[-49.8732,-27.2282],[-49.9125,-27.2183],[-49.9158,-27.1929],[-49.9195,-27.1881],[-49.9323,-27.1889],[-49.9163,-27.1573],[-49.9144,-27.1442],[-49.9078,-27.1502],[-49.9105,-27.1456],[-49.9083,-27.14],[-49.9006,-27.1362],[-49.9015,-27.15],[-49.8962,-27.1467],[-49.8911,-27.1483],[-49.8877,-27.1432],[-49.895,-27.1066],[-49.8951,-27.1062],[-49.898,-27.1022],[-49.8756,-27.0215]]]}},{"type":"Feature","properties":{"ibge":"4214805","nome":"Rio do Sul","monitorado":false},"geometry":{"type":"Polygon","coordinates":[[[-49.5957,-27.1008],[-49.5947,-27.1108],[-49.5906,-27.1141],[-49.5883,-27.117],[-49.5927,-27.1273],[-49.5916,-27.1429],[-49.5723,-27.1435],[-49.5754,-27.162],[-49.5763,-27.1675],[-49.5744,-27.1739],[-49.572,-27.1781],[-49.5716,-27.1789],[-49.5555,-27.2068],[-49.5433,-27.2182],[-49.5427,-27.2282],[-49.5508,-27.232],[-49.5509,-27.2349],[-49.5438,-27.2504],[-49.536,-27.2563],[-49.5275,-27.2716],[-49.5384,-27.2759],[-49.5579,-27.2764],[-49.5659,-27.274],[-49.5774,-27.2591],[-49.585,-27.2635],[-49.6042,-27.2771],[-49.6153,-27.2786],[-49.6198,-27.2828],[-49.6251,-27.2833],[-49.6407,-27.2738],[-49.6464,-27.275],[-49.6508,-27.276],[-49.6592,-27.278],[-49.6602,-27.283],[-49.6802,-27.2896],[-49.6905,-27.2886],[-49.6958,-27.2833],[-49.6916,-27.2693],[-49.6938,-27.2602],[-49.6946,-27.2574],[-49.6966,-27.255],[-49.6986,-27.2499],[-49.6906,-27.2442],[-49.6884,-27.2361],[-49.6909,-27.2294],[-49.6965,-27.2274],[-49.6978,-27.2172],[-49.6891,-27.209],[-49.6955,-27.2004],[-49.6835,-27.198],[-49.694,-27.1888],[-49.7041,-27.1852],[-49.7019,-27.1747],[-49.7058,-27.1723],[-49.7043,-27.1639],[-49.7105,-27.1509],[-49.7171,-27.1426],[-49.708,-27.132],[-49.6988,-27.1297],[-49.6961,-27.123],[-49.6669,-27.1167],[-49.6635,-27.1086],[-49.656,-27.1029],[-49.6351,-27.1077],[-49.6328,-27.0993],[-49.6255,-27.0876],[-49.6133,-27.0801],[-49.6006,-27.0822],[-49.5989,-27.0857],[-49.5852,-27.0864],[-49.5957,-27.1008]]]}},{"type":"Feature","properties":{"ibge":"4215000","nome":"Rio Negrinho","monitorado":false},"geometry":{"type":"Polygon","coordinates":[[[-49.4828,-26.1975],[-49.4831,-26.2114],[-49.4775,-26.2175],[-49.4776,-26.2271],[-49.4702,-26.2406],[-49.4701,-26.2458],[-49.4694,-26.2809],[-49.4732,-26.2829],[-49.4777,-26.2795],[-49.48,-26.2866],[-49.4711,-26.2926],[-49.4758,-26.3023],[-49.4691,-26.3052],[-49.4684,-26.3032],[-49.4678,-26.3002],[-49.4656,-26.3065],[-49.469,-26.3239],[-49.4632,-26.3387],[-49.4668,-26.3456],[-49.4651,-26.3583],[-49.4696,-26.3614],[-49.4649,-26.3635],[-49.4525,-26.3893],[-49.4621,-26.398],[-49.4707,-26.4179],[-49.4743,-26.4206],[-49.4821,-26.419],[-49.4867,-26.4249],[-49.4955,-26.4264],[-49.4921,-26.4303],[-49.4934,-26.4388],[-49.4869,-26.4399],[-49.4755,-26.453],[-49.4706,-26.4525],[-49.4698,-26.4643],[-49.4651,-26.467],[-49.4666,-26.4718],[-49.4393,-26.4886],[-49.4428,-26.4887],[-49.4515,-26.4994],[-49.4779,-26.5112],[-49.4914,-26.5087],[-49.5114,-26.5206],[-49.527,-26.5249],[-49.5377,-26.5211],[-49.5421,-26.5256],[-49.5492,-26.5239],[-49.5499,-26.5349],[-49.5655,-26.5566],[-49.565,-26.5652],[-49.5822,-26.5818],[-49.579,-26.5949],[-49.585,-26.6079],[-49.5858,-26.6227],[-49.5945,-26.6271],[-49.6042,-26.6349],[-49.6159,-26.6385],[-49.6212,-26.6499],[-49.6231,-26.6634],[-49.6158,-26.6791],[-49.6163,-26.7001],[-49.6234,-26.7027],[-49.6406,-26.6911],[-49.6447,-26.693],[-49.6519,-26.6894],[-49.6532,-26.6918],[-49.6629,-26.687],[-49.677,-26.693],[-49.6872,-26.6913],[-49.6938,-26.6856],[-49.6943,-26.6794],[-49.7063,-26.662],[-49.7086,-26.6486],[-49.703,-26.6443],[-49.7,-26.6346],[-49.6964,-26.6352],[-49.6862,-26.6258],[-49.6816,-26.629],[-49.6758,-26.6224],[-49.6841,-26.6194],[-49.6857,-26.611],[-49.6866,-26.5853],[-49.6933,-26.5726],[-49.7023,-26.5726],[-49.7231,-26.5579],[-49.7333,-26.5482],[-49.7364,-26.5179],[-49.7567,-26.4942],[-49.758,-26.4829],[-49.7624,-26.4776],[-49.7588,-26.4734],[-49.7609,-26.4705],[-49.7494,-26.469],[-49.7619,-26.4604],[-49.7506,-26.4562],[-49.7504,-26.4473],[-49.7437,-26.4439],[-49.7473,-26.4334],[-49.7413,-26.4333],[-49.7302,-26.4165],[-49.7263,-26.4196],[-49.7293,-26.4223],[-49.7267,-26.4278],[-49.7208,-26.4142],[-49.7148,-26.412],[-49.7127,-26.4233],[-49.7118,-26.4131],[-49.7069,-26.4097],[-49.709,-26.4057],[-49.7027,-26.4087],[-49.7023,-26.4014],[-49.6978,-26.4056],[-49.6984,-26.3959],[-49.6954,-26.3945],[-49.6885,-26.3938],[-49.6927,-26.3891],[-49.6897,-26.3871],[-49.6865,-26.3899],[-49.685,-26.3863],[-49.6763,-26.3921],[-49.6656,-26.3833],[-49.6654,-26.3785],[-49.6507,-26.3762],[-49.6499,-26.3798],[-49.6394,-26.3734],[-49.6359,-26.3753],[-49.6364,-26.3801],[-49.6336,-26.3789],[-49.6325,-26.3707],[-49.6414,-26.3679],[-49.6357,-26.3605],[-49.6507,-26.3647],[-49.6462,-26.3583],[-49.6507,-26.3545],[-49.6445,-26.3539],[-49.6524,-26.3535],[-49.6529,-26.3502],[-49.6412,-26.3405],[-49.6264,-26.343],[-49.6287,-26.3351],[-49.626,-26.3297],[-49.6159,-26.3376],[-49.6117,-26.3348],[-49.6218,-26.3192],[-49.6111,-26.3123],[-49.6193,-26.3136],[-49.6252,-26.3105],[-49.6249,-26.3042],[-49.6341,-26.3055],[-49.6306,-26.2973],[-49.6325,-26.2938],[-49.6172,-26.2932],[-49.626,-26.2884],[-49.6315,-26.2901],[-49.6318,-26.2865],[-49.6205,-26.279],[-49.627,-26.2711],[-49.6196,-26.2654],[-49.6183,-26.2545],[-49.6184,-26.2542],[-49.6169,-26.25],[-49.622,-26.2429],[-49.6201,-26.2396],[-49.6124,-26.239],[-49.6168,-26.2337],[-49.6114,-26.2257],[-49.6056,-26.2241],[-49.6027,-26.2266],[-49.6004,-26.2281],[-49.5982,-26.2209],[-49.5922,-26.2229],[-49.5871,-26.217],[-49.5913,-26.2297],[-49.5831,-26.2297],[-49.5779,-26.2266],[-49.5774,-26.2135],[-49.5668,-26.2328],[-49.5602,-26.2364],[-49.5546,-26.2368],[-49.5471,-26.2297],[-49.5516,-26.2246],[-49.5452,-26.2246],[-49.5379,-26.2296],[-49.5355,-26.2253],[-49.5424,-26.2233],[-49.5403,-26.2131],[-49.5337,-26.2151],[-49.5289,-26.2241],[-49.5282,-26.2171],[-49.5201,-26.224],[-49.5188,-26.2267],[-49.5114,-26.2209],[-49.5039,-26.2261],[-49.5029,-26.2215],[-49.4961,-26.2208],[-49.4979,-26.2182],[-49.4904,-26.2137],[-49.4906,-26.2096],[-49.4945,-26.2111],[-49.4995,-26.203],[-49.4933,-26.2033],[-49.4864,-26.1941],[-49.4828,-26.1975]]]}},{"type":"Feature","properties":{"ibge":"4215307","nome":"Salete","monitorado":false},"geometry":{"type":"Polygon","coordinates":[[[-49.9615,-26.9006],[-49.958,-26.906],[-49.9541,-26.9008],[-49.9502,-26.9055],[-49.9578,-26.9189],[-49.9485,-26.9277],[-49.955,-26.9314],[-49.9571,-26.9418],[-49.9545,-26.946],[-49.9587,-26.9602],[-49.9463,-26.9877],[-49.946,-26.9963],[-49.9481,-27.0023],[-49.9596,-27.0022],[-49.96,-27.0114],[-49.9765,-27.0111],[-49.976,-27.0462],[-49.9914,-27.0463],[-50.0349,-27.0467],[-50.0477,-27.0469],[-50.0468,-27.0412],[-50.0528,-27.0312],[-50.0555,-27.0289],[-50.0634,-27.0341],[-50.0698,-27.0316],[-50.0919,-26.9875],[-50.0858,-26.9744],[-50.0726,-26.9684],[-50.0651,-26.9526],[-50.0623,-26.9491],[-50.0501,-26.9327],[-50.0246,-26.9214],[-50.0232,-26.9139],[-50.0154,-26.9093],[-50.0211,-26.9002],[-50.0044,-26.8794],[-49.9732,-26.8682],[-49.9684,-26.8678],[-49.9634,-26.8779],[-49.9579,-26.8958],[-49.9615,-26.9006]]]}},{"type":"Feature","properties":{"ibge":"4215679","nome":"Santa Terezinha","monitorado":false},"geometry":{"type":"Polygon","coordinates":[[[-49.9856,-26.5134],[-49.9817,-26.5211],[-49.9703,-26.5256],[-49.9723,-26.5302],[-49.9618,-26.5433],[-49.9557,-26.5439],[-49.9589,-26.5526],[-49.9538,-26.5611],[-49.9548,-26.5675],[-49.9457,-26.5695],[-49.9439,-26.5732],[-49.9316,-26.571],[-49.9128,-26.5844],[-49.9085,-26.5963],[-49.9106,-26.6009],[-49.8966,-26.6012],[-49.8955,-26.6062],[-49.8842,-26.6169],[-49.8794,-26.6277],[-49.8815,-26.645],[-49.8745,-26.6499],[-49.8716,-26.6525],[-49.8646,-26.6503],[-49.8566,-26.6524],[-49.8467,-26.6662],[-49.8468,-26.6722],[-49.8382,-26.6759],[-49.8389,-26.6905],[-49.8286,-26.7055],[-49.8353,-26.7042],[-49.8471,-26.7107],[-49.8747,-26.7315],[-49.8798,-26.7323],[-49.8864,-26.7428],[-49.89,-26.7412],[-49.8903,-26.7537],[-49.9032,-26.7735],[-49.9008,-26.7755],[-49.9057,-26.7791],[-49.9065,-26.7865],[-49.9134,-26.7831],[-49.9165,-26.7905],[-49.9216,-26.7876],[-49.9286,-26.7889],[-49.9294,-26.7969],[-49.9362,-26.7957],[-49.9464,-26.806],[-49.9488,-26.8076],[-49.9521,-26.8007],[-49.968,-26.8025],[-49.9757,-26.7972],[-49.9796,-26.7939],[-49.986,-26.7971],[-49.9908,-26.8028],[-49.9949,-26.8016],[-49.9944,-26.8045],[-50.0333,-26.8137],[-50.0359,-26.813],[-50.0448,-26.8131],[-50.0563,-26.8212],[-50.0629,-26.8325],[-50.0602,-26.8383],[-50.071,-26.8379],[-50.0659,-26.8082],[-50.0685,-26.8062],[-50.0853,-26.8095],[-50.0986,-26.8022],[-50.1057,-26.7928],[-50.1071,-26.7561],[-50.1207,-26.737],[-50.1138,-26.7102],[-50.1161,-26.7037],[-50.1187,-26.692],[-50.1236,-26.687],[-50.1322,-26.6776],[-50.1353,-26.6651],[-50.1296,-26.6496],[-50.1379,-26.6455],[-50.1372,-26.6416],[-50.1325,-26.6404],[-50.1269,-26.6428],[-50.1211,-26.6293],[-50.1174,-26.631],[-50.1182,-26.6346],[-50.111,-26.6329],[-50.1157,-26.626],[-50.1113,-26.6232],[-50.1133,-26.616],[-50.1254,-26.6149],[-50.1188,-26.6119],[-50.1287,-26.6074],[-50.1198,-26.604],[-50.1296,-26.6008],[-50.1318,-26.595],[-50.1278,-26.5918],[-50.1283,-26.5886],[-50.1329,-26.5909],[-50.1322,-26.5864],[-50.1247,-26.5838],[-50.132,-26.5766],[-50.1248,-26.5764],[-50.1192,-26.5648],[-50.1205,-26.5621],[-50.1295,-26.5617],[-50.123,-26.5566],[-50.1316,-26.5504],[-50.125,-26.5402],[-50.1258,-26.5242],[-50.121,-26.5231],[-50.1151,-26.5174],[-50.1111,-26.519],[-50.1047,-26.5163],[-50.091,-26.5236],[-50.0794,-26.5251],[-50.0672,-26.5192],[-50.0581,-26.5213],[-50.0329,-26.5191],[-50.0191,-26.5029],[-49.9957,-26.5048],[-49.9905,-26.5102],[-49.9856,-26.5134]]]}},{"type":"Feature","properties":{"ibge":"4217808","nome":"Taió","monitorado":false},"geometry":{"type":"Polygon","coordinates":[[[-50.2905,-26.9682],[-50.2342,-26.9863],[-50.1677,-26.9838],[-50.1675,-26.9839],[-50.1573,-26.9864],[-50.1151,-26.9861],[-50.1055,-26.9967],[-50.1154,-27.004],[-50.1083,-27.008],[-50.1194,-27.0156],[-50.1072,-27.018],[-50.0977,-27.0257],[-50.0946,-27.0202],[-50.0882,-27.0261],[-50.0698,-27.0316],[-50.0634,-27.0341],[-50.0555,-27.0289],[-50.0528,-27.0312],[-50.0468,-27.0412],[-50.0477,-27.0469],[-50.0349,-27.0467],[-49.9914,-27.0463],[-49.976,-27.0462],[-49.9765,-27.0111],[-49.96,-27.0114],[-49.9596,-27.0022],[-49.9481,-27.0023],[-49.946,-26.9963],[-49.9149,-27],[-49.8966,-26.999],[-49.8957,-26.9965],[-49.8713,-27.0013],[-49.8756,-27.0215],[-49.898,-27.1022],[-49.8951,-27.1062],[-49.895,-27.1066],[-49.8877,-27.1432],[-49.8911,-27.1483],[-49.8962,-27.1467],[-49.9015,-27.15],[-49.9006,-27.1362],[-49.9083,-27.14],[-49.9105,-27.1456],[-49.9078,-27.1502],[-49.9144,-27.1442],[-49.9163,-27.1573],[-49.9323,-27.1889],[-49.9411,-27.2139],[-49.957,-27.2017],[-49.9572,-27.2015],[-49.9614,-27.1983],[-49.9657,-27.1957],[-49.9696,-27.1991],[-49.9764,-27.1988],[-49.9888,-27.2052],[-49.9963,-27.2143],[-50.0025,-27.2123],[-50.0022,-27.2055],[-49.9913,-27.19],[-49.9989,-27.1815],[-50.0084,-27.172],[-50.018,-27.1736],[-50.0455,-27.1697],[-50.0497,-27.173],[-50.047,-27.1742],[-50.0524,-27.1763],[-50.0611,-27.1503],[-50.0737,-27.1454],[-50.0849,-27.1479],[-50.0912,-27.1403],[-50.1049,-27.1472],[-50.122,-27.144],[-50.1381,-27.1343],[-50.1499,-27.1328],[-50.1605,-27.1424],[-50.1879,-27.1483],[-50.2012,-27.1548],[-50.2176,-27.149],[-50.2314,-27.1441],[-50.2315,-27.1309],[-50.235,-27.1223],[-50.2457,-27.1148],[-50.2476,-27.0997],[-50.282,-27.0937],[-50.2882,-27.109],[-50.2973,-27.1117],[-50.3062,-27.1062],[-50.3149,-27.088],[-50.3127,-27.081],[-50.3151,-27.0753],[-50.3107,-27.0641],[-50.3242,-27.0644],[-50.3341,-27.0598],[-50.3181,-27.0555],[-50.3191,-27.0491],[-50.3241,-27.0453],[-50.3146,-27.0363],[-50.3185,-27.0302],[-50.316,-27.0241],[-50.3187,-27.0193],[-50.309,-27.0102],[-50.3139,-27.003],[-50.3056,-26.992],[-50.293,-26.9914],[-50.2948,-26.9818],[-50.2976,-26.971],[-50.2905,-26.9682]]]}}]}
